STARLINK-32318          
1 61864U 24202V   26068.49023547 -.00000521  00000+0 -94122-5 0  9993
2 61864  42.9949 239.4111 0000519 268.0856  91.9936 15.27572747 75304
BANDWAGON-4 OBJECT N    
1 66305U 25248N   26068.03100984  .00024115  00000+0  97341-3 0  9997
2 66305  45.4084 294.9612 0013521 206.7837 153.2354 15.24369076 17177
